{
  "type": "FeatureCollection",
  "features": [
    {
      "type": "Feature",
      "properties": {
        "norad_id": 66761,
        "name": "TRANSPORTER-15CZ",
        "group": "last-30-days",
        "lat": -15.995727000497821,
        "lon": -108.88251022157056,
        "alt_km": 514.7337968144266,
        "timestamp": "2025-12-27T17:24:56.105645+00:00",
        "meta_object_name": "TRANSPORTER-15CZ",
        "meta_object_id": "2025-276CZ",
        "meta_epoch": "2025-12-27T11:48:39.392640",
        "meta_mean_motion": 15.18579988,
        "meta_eccentricity": 0.0001753,
        "meta_inclination": 97.439,
        "meta_ra_of_asc_node": 73.0343,
        "meta_arg_of_pericenter": 120.5497,
        "meta_mean_anomaly": 239.591,
        "meta_ephemeris_type": 0,
        "meta_classification_type": "U",
        "meta_norad_cat_id": 66761,
        "meta_element_set_no": 999,
        "meta_rev_at_epoch": 436,
        "meta_bstar": 0.00059536,
        "meta_mean_motion_dot": 0.00012252,
        "meta_mean_motion_ddot": 0,
        "tle_line1": "1 66761U 25276CZ  25361.49212260  .00012252  00000+0  59536-3 0  9993",
        "tle_line2": "2 66761  97.4390  73.0343 0001753 120.5497 239.5910 15.18579988  4367"
      },
      "geometry": {
        "type": "Point",
        "coordinates": [
          -108.88251022157056,
          -15.995727000497821
        ]
      }
    },
    {
      "type": "Feature",
      "properties": {
        "norad_id": 66762,
        "name": "HYDROGNSS-1",
        "group": "last-30-days",
        "lat": 82.43465126865739,
        "lon": -6.503491606509936,
        "alt_km": 506.98859891360917,
        "timestamp": "2025-12-27T17:24:56.105655+00:00",
        "meta_object_name": "HYDROGNSS-1",
        "meta_object_id": "2025-276DA",
        "meta_epoch": "2025-12-27T10:41:43.309824",
        "meta_mean_motion": 15.1733652,
        "meta_eccentricity": 0.0001169,
        "meta_inclination": 97.4403,
        "meta_ra_of_asc_node": 72.9476,
        "meta_arg_of_pericenter": 224.3442,
        "meta_mean_anomaly": 135.7698,
        "meta_ephemeris_type": 0,
        "meta_classification_type": "U",
        "meta_norad_cat_id": 66762,
        "meta_element_set_no": 999,
        "meta_rev_at_epoch": 435,
        "meta_bstar": 0.00021275,
        "meta_mean_motion_dot": 4.178e-05,
        "meta_mean_motion_ddot": 0,
        "tle_line1": "1 66762U 25276DA  25361.44564016  .00004178  00000+0  21275-3 0  9995",
        "tle_line2": "2 66762  97.4403  72.9476 0001169 224.3442 135.7698 15.17336520  4353"
      },
      "geometry": {
        "type": "Point",
        "coordinates": [
          -6.503491606509936,
          82.43465126865739
        ]
      }
    },
    {
      "type": "Feature",
      "properties": {
        "norad_id": 66763,
        "name": "HYDROGNSS-2",
        "group": "last-30-days",
        "lat": 75.96783291823787,
        "lon": -75.23919121530201,
        "alt_km": 506.74526027862703,
        "timestamp": "2025-12-27T17:24:56.105667+00:00",
        "meta_object_name": "HYDROGNSS-2",
        "meta_object_id": "2025-276DB",
        "meta_epoch": "2025-12-27T04:18:26.171712",
        "meta_mean_motion": 15.17462602,
        "meta_eccentricity": 0.00017232,
        "meta_inclination": 97.4407,
        "meta_ra_of_asc_node": 72.6959,
        "meta_arg_of_pericenter": 214.642,
        "meta_mean_anomaly": 145.4701,
        "meta_ephemeris_type": 0,
        "meta_classification_type": "U",
        "meta_norad_cat_id": 66763,
        "meta_element_set_no": 999,
        "meta_rev_at_epoch": 431,
        "meta_bstar": 0.000225243,
        "meta_mean_motion_dot": 4.443e-05,
        "meta_mean_motion_ddot": 0,
        "tle_line1": "1 66763U 25276DB  25361.17946958  .00004443  00000+0  22524-3 0  9998",
        "tle_line2": "2 66763  97.4407  72.6959 0001723 214.6420 145.4701 15.17462602  4315"
      },
      "geometry": {
        "type": "Point",
        "coordinates": [
          -75.23919121530201,
          75.96783291823787
        ]
      }
    },
    {
      "type": "Feature",
      "properties": {
        "norad_id": 66764,
        "name": "TRANSPORTER-15DC",
        "group": "last-30-days",
        "lat": 49.01286058176265,
        "lon": -98.11216928074305,
        "alt_km": 507.18179170844724,
        "timestamp": "2025-12-27T17:24:56.105677+00:00",
        "meta_object_name": "TRANSPORTER-15DC",
        "meta_object_id": "2025-276DC",
        "meta_epoch": "2025-12-27T10:30:49.693824",
        "meta_mean_motion": 15.1772117,
        "meta_eccentricity": 0.0002515,
        "meta_inclination": 97.4398,
        "meta_ra_of_asc_node": 72.9556,
        "meta_arg_of_pericenter": 179.3688,
        "meta_mean_anomaly": 180.755,
        "meta_ephemeris_type": 0,
        "meta_classification_type": "U",
        "meta_norad_cat_id": 66764,
        "meta_element_set_no": 999,
        "meta_rev_at_epoch": 435,
        "meta_bstar": 0.00026784,
        "meta_mean_motion_dot": 5.336e-05,
        "meta_mean_motion_ddot": 0,
        "tle_line1": "1 66764U 25276DC  25361.43807516  .00005336  00000+0  26784-3 0  9998",
        "tle_line2": "2 66764  97.4398  72.9556 0002515 179.3688 180.7550 15.17721170  4350"
      },
      "geometry": {
        "type": "Point",
        "coordinates": [
          -98.11216928074305,
          49.01286058176265
        ]
      }
    },
    {
      "type": "Feature",
      "properties": {
        "norad_id": 66765,
        "name": "TRANSPORTER-15DD",
        "group": "last-30-days",
        "lat": -38.6542687890591,
        "lon": -112.71853908043141,
        "alt_km": 516.1799521982948,
        "timestamp": "2025-12-27T17:24:56.105687+00:00",
        "meta_object_name": "TRANSPORTER-15DD",
        "meta_object_id": "2025-276DD",
        "meta_epoch": "2025-12-27T11:42:40.625280",
        "meta_mean_motion": 15.18856699,
        "meta_eccentricity": 0.0001989,
        "meta_inclination": 97.4415,
        "meta_ra_of_asc_node": 73.0483,
        "meta_arg_of_pericenter": 113.1636,
        "meta_mean_anomaly": 246.9808,
        "meta_ephemeris_type": 0,
        "meta_classification_type": "U",
        "meta_norad_cat_id": 66765,
        "meta_element_set_no": 999,
        "meta_rev_at_epoch": 436,
        "meta_bstar": 0.00075434,
        "meta_mean_motion_dot": 0.00015674,
        "meta_mean_motion_ddot": 0,
        "tle_line1": "1 66765U 25276DD  25361.48797020  .00015674  00000+0  75434-3 0  9994",
        "tle_line2": "2 66765  97.4415  73.0483 0001989 113.1636 246.9808 15.18856699  4363"
      },
      "geometry": {
        "type": "Point",
        "coordinates": [
          -112.71853908043141,
          -38.6542687890591
        ]
      }
    },
    {
      "type": "Feature",
      "properties": {
        "norad_id": 66766,
        "name": "TRANSPORTER-15DE",
        "group": "last-30-days",
        "lat": -17.789793254557328,
        "lon": -109.14983018325846,
        "alt_km": 516.0141349439982,
        "timestamp": "2025-12-27T17:24:56.105702+00:00",
        "meta_object_name": "TRANSPORTER-15DE",
        "meta_object_id": "2025-276DE",
        "meta_epoch": "2025-12-27T11:48:09.504288",
        "meta_mean_motion": 15.18479259,
        "meta_eccentricity": 0.0001958,
        "meta_inclination": 97.4355,
        "meta_ra_of_asc_node": 73.0219,
        "meta_arg_of_pericenter": 86.0035,
        "meta_mean_anomaly": 274.1423,
        "meta_ephemeris_type": 0,
        "meta_classification_type": "U",
        "meta_norad_cat_id": 66766,
        "meta_element_set_no": 999,
        "meta_rev_at_epoch": 436,
        "meta_bstar": 0.00057094,
        "meta_mean_motion_dot": 0.00011712,
        "meta_mean_motion_ddot": 0,
        "tle_line1": "1 66766U 25276DE  25361.49177667  .00011712  00000+0  57094-3 0  9996",
        "tle_line2": "2 66766  97.4355  73.0219 0001958  86.0035 274.1423 15.18479259  4360"
      },
      "geometry": {
        "type": "Point",
        "coordinates": [
          -109.14983018325846,
          -17.789793254557328
        ]
      }
    },
    {
      "type": "Feature",
      "properties": {
        "norad_id": 66767,
        "name": "TRANSPORTER-15DF",
        "group": "last-30-days",
        "lat": -11.741287599195298,
        "lon": -108.30327134846665,
        "alt_km": 515.6427843050205,
        "timestamp": "2025-12-27T17:24:56.105714+00:00",
        "meta_object_name": "TRANSPORTER-15DF",
        "meta_object_id": "2025-276DF",
        "meta_epoch": "2025-12-27T11:49:44.673024",
        "meta_mean_motion": 15.18372293,
        "meta_eccentricity": 0.0002045,
        "meta_inclination": 97.4365,
        "meta_ra_of_asc_node": 73.0235,
        "meta_arg_of_pericenter": 85.4875,
        "meta_mean_anomaly": 274.6592,
        "meta_ephemeris_type": 0,
        "meta_classification_type": "U",
        "meta_norad_cat_id": 66767,
        "meta_element_set_no": 999,
        "meta_rev_at_epoch": 436,
        "meta_bstar": 0.00024956,
        "meta_mean_motion_dot": 5.062e-05,
        "meta_mean_motion_ddot": 0,
        "tle_line1": "1 66767U 25276DF  25361.49287816  .00005062  00000+0  24956-3 0  9997",
        "tle_line2": "2 66767  97.4365  73.0235 0002045  85.4875 274.6592 15.18372293  4365"
      },
      "geometry": {
        "type": "Point",
        "coordinates": [
          -108.30327134846665,
          -11.741287599195298
        ]
      }
    }
  ]
}